NORAD_CAT_ID,OBJECT_NAME,OBJECT_TYPE,EPOCH,MEAN_MOTION,ECCENTRICITY,INCLINATION,RA_OF_ASC_NODE,ARG_OF_PERICENTER,MEAN_ANOMALY,BSTAR,MEAN_MOTION_DOT,MEAN_MOTION_DDOT,TLE_LINE0,TLE_LINE1,TLE_LINE2,SEMIMAJOR_AXIS,PERIOD,APOGEE,PERIGEE,DECAYED
27216,PSLV DEB,DEBRIS,2022-05-27 01:46:12,15.08395465,0.0028075,98.2025,193.0895,257.2851,161.0923,0.00068083,0.00010619,0.0,0 PSLV DEB,1 27216U 01049FL  22147.07375212  .00010619  00000-0  68083-3 0  9990,2 27216  98.2025 193.0895 0028075 257.2851 161.0923 15.08395465108741,6919.239000000001,95.46600000000001,560.53,521.679,0.0
27216,PSLV DEB,DEBRIS,2022-05-27 14:55:13,15.08405461,0.0027878,98.1987,193.6735,255.3992,256.5288,0.00061509,9.587e-05,0.0,0 PSLV DEB,1 27216U 01049FL  22147.62168201  .00009587  00000-0  61509-3 0  9997,2 27216  98.1987 193.6735 0027878 255.3992 256.5288 15.08405461108822,6919.209,95.465,560.363,521.785,0.0
27216,PSLV DEB,DEBRIS,2022-05-28 01:39:49,15.08417794,0.0027849,98.1985,194.15099999999998,253.75900000000001,167.4788,0.0007616000000000001,0.00011896,0.0,0 PSLV DEB,1 27216U 01049FL  22148.06932284  .00011896  00000-0  76160-3 0  9991,2 27216  98.1985 194.1510 0027849 253.7590 167.4788 15.08417794108895,6919.1709999999985,95.464,560.305,521.7669999999998,0.0
27216,PSLV DEB,DEBRIS,2022-05-28 21:16:19,15.08433483,0.002794,98.1984,195.0229,250.92700000000002,284.2092,0.00062811,9.799e-05,0.0,0 PSLV DEB,1 27216U 01049FL  22148.88633514  .00009799  00000-0  62811-3 0  9992,2 27216  98.1984 195.0229 0027940 250.9270 284.2092 15.08433483109011,6919.123000000001,95.463,560.32,521.656,0.0
27216,PSLV DEB,DEBRIS,2022-05-29 09:17:21,15.08442437,0.0027852,98.1979,195.5574,249.0587,123.4832,0.00053698,8.367e-05,0.0,0 PSLV DEB,1 27216U 01049FL  22149.38705336  .00008367  00000-0  53698-3 0  9993,2 27216  98.1979 195.5574 0027852 249.0587 123.4832 15.08442437109098,6919.096,95.463,560.232,521.69,0.0
27216,PSLV DEB,DEBRIS,2022-05-29 22:31:08,15.08453487,0.0027898000000000003,98.1982,196.1457,247.0824,237.0377,0.00056068,8.743e-05,0.0,0 PSLV DEB,1 27216U 01049FL  22149.93828795  .00008743  00000-0  56068-3 0  9991,2 27216  98.1982 196.1457 0027898 247.0824 237.0377 15.08453487109173,6919.062,95.462,560.23,521.624,0.0
27216,PSLV DEB,DEBRIS,2022-05-30 14:33:43,15.08462328,0.0027957,98.198,196.8591,244.7772,267.1747,0.00044231,6.881e-05,0.0,0 PSLV DEB,1 27216U 01049FL  22150.60675569  .00006881  00000-0  44231-3 0  9996,2 27216  98.1980 196.8591 0027957 244.7772 267.1747 15.08462328109279,6919.035,95.461,560.244,521.556,0.0
27216,PSLV DEB,DEBRIS,2022-05-30 22:24:03,15.0846589,0.0027981,98.1975,197.2076,243.5933,240.9312,0.00039279,6.103e-05,0.0,0 PSLV DEB,1 27216U 01049FL  22150.93337012  .00006103  00000-0  39279-3 0  9993,2 27216  98.1975 197.2076 0027981 243.5933 240.9312 15.08465890109329,6919.024,95.461,560.249,521.529,0.0
27216,PSLV DEB,DEBRIS,2022-05-31 14:26:45,15.08476098,0.0028073,98.1972,197.9212,241.2651,271.5642,0.00038938,6.051e-05,0.0,0 PSLV DEB,1 27216U 01049FL  22151.60191868  .00006051  00000-0  38938-3 0  9998,2 27216  98.1972 197.9212 0028073 241.2651 271.5642 15.08476098109429,6918.993,95.461,560.2819999999998,521.434,0.0
27216,PSLV DEB,DEBRIS,2022-06-01 22:10:03,15.08491205,0.0028298999999999998,98.1966,199.3317,236.7635,249.3333,0.00032769,5.083e-05,0.0,0 PSLV DEB,1 27216U 01049FL  22152.92364875  .00005083  00000-0  32769-3 0  9994,2 27216  98.1966 199.3317 0028299 236.7635 249.3333 15.08491205109624,6918.946999999999,95.46,560.3919999999998,521.232,0.0
27216,PSLV DEB,DEBRIS,2022-06-02 02:37:35,15.08492389,0.0028301,98.1966,199.53,236.1568,178.2634,0.00028467,4.405e-05,0.0,0 PSLV DEB,1 27216U 01049FL  22153.10943927  .00004405  00000-0  28467-3 0  9993,2 27216  98.1966 199.5300 0028301 236.1568 178.2634 15.08492389109641,6918.943,95.46,560.389,521.227,0.0
27216,PSLV DEB,DEBRIS,2022-06-02 09:02:15,15.08494804,0.0028404,98.1967,199.8149,235.2207,188.9402,0.00027525,4.258e-05,0.0,0 PSLV DEB,1 27216U 01049FL  22153.37656344  .00004258  00000-0  27525-3 0  9996,2 27216  98.1967 199.8149 0028404 235.2207 188.9402 15.08494804109690,6918.936,95.459,560.453,521.148,0.0
27216,PSLV DEB,DEBRIS,2022-06-03 08:54:45,15.08506099,0.0028461,98.1964,200.8767,231.9256,191.2065,0.0003253,5.048e-05,0.0,0 PSLV DEB,1 27216U 01049FL  22154.37135500  .00005048  00000-0  32530-3 0  9993,2 27216  98.1964 200.8767 0028461 231.9256 191.2065 15.08506099109845,6918.901,95.459,560.4580000000002,521.0740000000002,0.0
27216,PSLV DEB,DEBRIS,2022-06-04 08:47:08,15.08516838,0.0028443,98.1969,201.938,228.6534,193.051,0.00034971,5.434e-05,0.0,0 PSLV DEB,1 27216U 01049FL  22155.36606660  .00005434  00000-0  34971-3 0  9993,2 27216  98.1969 201.9380 0028443 228.6534 193.0510 15.08516838109998,6918.868,95.458,560.413,521.054,0.0
27216,PSLV DEB,DEBRIS,2022-06-05 02:15:46,15.08525419,0.0028495,98.197,202.7152,226.1576,187.8503,0.00037549999999999997,5.842e-05,0.0,0 PSLV DEB,1 27216U 01049FL  22156.09429196  .00005842  00000-0  37550-3 0  9990,2 27216  98.1970 202.7152 0028495 226.1576 187.8503 15.08525419110105,6918.842,95.45700000000001,560.422,520.992,0.0
27216,PSLV DEB,DEBRIS,2022-06-05 08:39:45,15.08527617,0.0028501,98.197,202.9998,225.25,195.9354,0.0003597,5.593e-05,0.0,0 PSLV DEB,1 27216U 01049FL  22156.36093841  .00005593  00000-0  35970-3 0  9991,2 27216  98.1970 202.9998 0028501 225.2500 195.9354 15.08527617110140,6918.835,95.45700000000001,560.42,520.981,0.0
27216,PSLV DEB,DEBRIS,2022-06-06 08:31:58,15.085390499999999,0.0028550999999999997,98.1972,204.0613,221.767,197.4437,0.00036265,5.642e-05,0.0,0 PSLV DEB,1 27216U 01049FL  22157.35553418  .00005642  00000-0  36265-3 0  9995,2 27216  98.1972 204.0613 0028551 221.7670 197.4437 15.08539050110292,6918.8,95.45700000000001,560.419,520.9119999999998,0.0
27216,PSLV DEB,DEBRIS,2022-06-07 02:02:19,15.0854936,0.002857,98.1975,204.8398,219.1976,198.8148,0.00039833,6.207e-05,0.0,0 PSLV DEB,1 27216U 01049FL  22158.08494500  .00006207  00000-0  39833-3 0  9994,2 27216  98.1975 204.8398 0028570 219.1976 198.8148 15.08549360110406,6918.769,95.456,560.401,520.867,0.0
27216,PSLV DEB,DEBRIS,2022-06-08 01:47:54,15.08562895,0.0028577,98.1979,205.8965,215.4088,175.7487,0.00040551,6.322e-05,0.0,0 PSLV DEB,1 27216U 01049FL  22159.07494104  .00006322  00000-0  40551-3 0  9991,2 27216  98.1979 205.8965 0028577 215.4088 175.7487 15.08562895110555,6918.728,95.455,560.364,520.821,0.0
27216,PSLV DEB,DEBRIS,2022-06-08 15:04:01,15.08570868,0.0028674,98.198,206.4861,213.6374,298.1518,0.00040865,6.374e-05,0.0,0 PSLV DEB,1 27216U 01049FL  22159.62780038  .00006374  00000-0  40865-3 0  9991,2 27216  98.1980 206.4861 0028674 213.6374 298.1518 15.08570868110638,6918.703,95.455,560.4069999999998,520.729,0.0
27216,PSLV DEB,DEBRIS,2022-06-09 09:32:54,15.08580761,0.0028686,98.198,207.3081,210.8706,160.3636,0.00039093,6.096e-05,0.0,0 PSLV DEB,1 27216U 01049FL  22160.39784876  .00006096  00000-0  39093-3 0  9993,2 27216  98.1980 207.3081 0028686 210.8706 160.3636 15.08580761110750,6918.6730000000025,95.454,560.385,520.691,0.0
27216,PSLV DEB,DEBRIS,2022-06-09 14:59:14,15.08583745,0.0028705,98.1979,207.5499,210.1291,311.135,0.00038333,5.976e-05,0.0,0 PSLV DEB,1 27216U 01049FL  22160.62447656  .00005976  00000-0  38333-3 0  9993,2 27216  98.1979 207.5499 0028705 210.1291 311.1350 15.08583745110784,6918.6640000000025,95.454,560.389,520.669,0.0
27216,PSLV DEB,DEBRIS,2022-06-10 09:25:25,15.08593403,0.0028759000000000002,98.1978,208.3699,207.4644,163.1567,0.00038136,5.947e-05,0.0,0 PSLV DEB,1 27216U 01049FL  22161.39265977  .00005947  00000-0  38136-3 0  9991,2 27216  98.1978 208.3699 0028759 207.4644 163.1567 15.08593403110905,6918.634,95.45299999999999,560.3969999999998,520.602,0.0
27216,PSLV DEB,DEBRIS,2022-06-11 09:18:06,15.08606476,0.002884,98.1977,209.4319,204.1187,166.4813,0.00039539,6.171e-05,0.0,0 PSLV DEB,1 27216U 01049FL  22162.38757139  .00006171  00000-0  39539-3 0  9995,2 27216  98.1977 209.4319 0028840 204.1187 166.4813 15.08606476111043,6918.594,95.45200000000001,560.4119999999998,520.506,0.0
27216,PSLV DEB,DEBRIS,2022-06-11 14:42:01,15.08611658,0.0028853000000000004,98.1977,209.6716,203.2644,308.2676,0.00045097,7.051e-05,0.0,0 PSLV DEB,1 27216U 01049FL  22162.61251861  .00007051  00000-0  45097-3 0  9996,2 27216  98.1977 209.6716 0028853 203.2644 308.2676 15.08611658111083,6918.578,95.45200000000001,560.406,520.481,0.0
27216,PSLV DEB,DEBRIS,2022-06-12 09:10:43,15.08620731,0.0028941999999999996,98.1974,210.4933,200.6041,169.8508,0.00041461,6.478e-05,0.0,0 PSLV DEB,1 27216U 01049FL  22163.38245079  .00006478  00000-0  41461-3 0  9998,2 27216  98.1974 210.4933 0028942 200.6041 169.8508 15.08620731111203,6918.5509999999995,95.45100000000001,560.439,520.3919999999998,0.0
27216,PSLV DEB,DEBRIS,2022-06-12 14:34:50,15.08625004,0.0028965999999999996,98.1974,210.7336,199.8812,312.2166,0.00044927,7.027e-05,0.0,0 PSLV DEB,1 27216U 01049FL  22163.60752727  .00007027  00000-0  44927-3 0  9997,2 27216  98.1974 210.7336 0028966 199.8812 312.2166 15.08625004111239,6918.538000000001,95.45100000000001,560.443,520.362,0.0
27216,PSLV DEB,DEBRIS,2022-06-13 02:54:37,15.08634419,0.0029016,98.197,211.282,198.2052,222.3343,0.00051631,8.091e-05,0.0,0 PSLV DEB,1 27216U 01049FL  22164.12126977  .00008091  00000-0  51631-3 0  9999,2 27216  98.1970 211.2820 0029016 198.2052 222.3343 15.08634419111312,6918.509,95.45100000000001,560.4490000000002,520.299,0.0
27216,PSLV DEB,DEBRIS,2022-06-14 02:46:03,15.08653367,0.002912,98.1964,212.343,195.0149,220.947,0.00056451,8.859e-05,0.0,0 PSLV DEB,1 27216U 01049FL  22165.11531293  .00008859  00000-0  56451-3 0  9997,2 27216  98.1964 212.3430 0029120 195.0149 220.9470 15.08653367111466,6918.451,95.449,560.462,520.169,0.0
27216,PSLV DEB,DEBRIS,2022-06-14 14:20:30,15.08664198,0.0029166,98.1962,212.8578,193.4789,320.0996,0.00063246,9.939e-05,0.0,0 PSLV DEB,1 27216U 01049FL  22165.59757340  .00009939  00000-0  63246-3 0  9992,2 27216  98.1962 212.8578 0029166 193.4789 320.0996 15.08664198111531,6918.418000000002,95.449,560.461,520.105,0.0
